{
  "type": "FeatureCollection",
  "features": [
    {
      "type": "Feature",
      "properties": {
        "norad_id": 30556,
        "name": "FENGYUN 1C DEB",
        "group": "fengyun-1c-debris",
        "lat": -40.01676313041836,
        "lon": 0.8310910689220778,
        "alt_km": 921.0185027751313,
        "timestamp": "2025-12-26T15:29:39.716590+00:00",
        "meta_object_name": "FENGYUN 1C DEB",
        "meta_object_id": "1999-025AKW",
        "meta_epoch": "2025-12-25T11:17:10.819968",
        "meta_mean_motion": 14.01374716,
        "meta_eccentricity": 0.0068769,
        "meta_inclination": 98.7809,
        "meta_ra_of_asc_node": 352.244,
        "meta_arg_of_pericenter": 201.7203,
        "meta_mean_anomaly": 310.879,
        "meta_ephemeris_type": 0,
        "meta_classification_type": "U",
        "meta_norad_cat_id": 30556,
        "meta_element_set_no": 999,
        "meta_rev_at_epoch": 96435,
        "meta_bstar": 0.0001858,
        "meta_mean_motion_dot": 2.44e-06,
        "meta_mean_motion_ddot": 0,
        "tle_line1": "1 30556U 99025AKW 25359.47026412  .00000244  00000+0  18580-3 0  9998",
        "tle_line2": "2 30556  98.7809 352.2440 0068769 201.7203 310.8790 14.01374716964352"
      },
      "geometry": {
        "type": "Point",
        "coordinates": [
          0.8310910689220778,
          -40.01676313041836
        ]
      }
    },
    {
      "type": "Feature",
      "properties": {
        "norad_id": 30557,
        "name": "FENGYUN 1C DEB",
        "group": "fengyun-1c-debris",
        "lat": -15.982451927181407,
        "lon": -116.87391089590326,
        "alt_km": 811.3634029232571,
        "timestamp": "2025-12-26T15:29:39.716600+00:00",
        "meta_object_name": "FENGYUN 1C DEB",
        "meta_object_id": "1999-025AKX",
        "meta_epoch": "2025-12-26T02:39:10.305216",
        "meta_mean_motion": 14.10859725,
        "meta_eccentricity": 0.00688553,
        "meta_inclination": 98.9191,
        "meta_ra_of_asc_node": 65.1729,
        "meta_arg_of_pericenter": 195.305,
        "meta_mean_anomaly": 164.6038,
        "meta_ephemeris_type": 0,
        "meta_classification_type": "U",
        "meta_norad_cat_id": 30557,
        "meta_element_set_no": 999,
        "meta_rev_at_epoch": 96489,
        "meta_bstar": 0.001383449,
        "meta_mean_motion_dot": 2.491e-05,
        "meta_mean_motion_ddot": 0,
        "tle_line1": "1 30557U 99025AKX 25360.11053594  .00002491  00000+0  13834-2 0  9995",
        "tle_line2": "2 30557  98.9191  65.1729 0068855 195.3050 164.6038 14.10859725964890"
      },
      "geometry": {
        "type": "Point",
        "coordinates": [
          -116.87391089590326,
          -15.982451927181407
        ]
      }
    },
    {
      "type": "Feature",
      "properties": {
        "norad_id": 30558,
        "name": "FENGYUN 1C DEB",
        "group": "fengyun-1c-debris",
        "lat": 56.41082925089195,
        "lon": -24.98724707243273,
        "alt_km": 1283.3664529533444,
        "timestamp": "2025-12-26T15:29:39.716610+00:00",
        "meta_object_name": "FENGYUN 1C DEB",
        "meta_object_id": "1999-025AKY",
        "meta_epoch": "2025-12-18T02:35:59.256672",
        "meta_mean_motion": 13.28535877,
        "meta_eccentricity": 0.04271131,
        "meta_inclination": 99.4659,
        "meta_ra_of_asc_node": 132.6231,
        "meta_arg_of_pericenter": 260.3076,
        "meta_mean_anomaly": 94.9567,
        "meta_ephemeris_type": 0,
        "meta_classification_type": "U",
        "meta_norad_cat_id": 30558,
        "meta_element_set_no": 999,
        "meta_rev_at_epoch": 90829,
        "meta_bstar": 0.0032374201,
        "meta_mean_motion_dot": 2.396e-05,
        "meta_mean_motion_ddot": 0,
        "tle_line1": "1 30558U 99025AKY 25352.10832473  .00002396  00000+0  32374-2 0  9991",
        "tle_line2": "2 30558  99.4659 132.6231 0427113 260.3076  94.9567 13.28535877908292"
      },
      "geometry": {
        "type": "Point",
        "coordinates": [
          -24.98724707243273,
          56.41082925089195
        ]
      }
    },
    {
      "type": "Feature",
      "properties": {
        "norad_id": 30560,
        "name": "FENGYUN 1C DEB",
        "group": "fengyun-1c-debris",
        "lat": -76.75322050511568,
        "lon": 133.66027161139198,
        "alt_km": 839.1539077653615,
        "timestamp": "2025-12-26T15:29:39.716621+00:00",
        "meta_object_name": "FENGYUN 1C DEB",
        "meta_object_id": "1999-025ALA",
        "meta_epoch": "2025-12-25T13:27:24.778080",
        "meta_mean_motion": 14.17039628,
        "meta_eccentricity": 0.0115511,
        "meta_inclination": 98.6644,
        "meta_ra_of_asc_node": 352.974,
        "meta_arg_of_pericenter": 174.8052,
        "meta_mean_anomaly": 312.4862,
        "meta_ephemeris_type": 0,
        "meta_classification_type": "U",
        "meta_norad_cat_id": 30560,
        "meta_element_set_no": 999,
        "meta_rev_at_epoch": 97550,
        "meta_bstar": 0.00023447,
        "meta_mean_motion_dot": 4.61e-06,
        "meta_mean_motion_ddot": 0,
        "tle_line1": "1 30560U 99025ALA 25359.56070345  .00000461  00000+0  23447-3 0  9996",
        "tle_line2": "2 30560  98.6644 352.9740 0115511 174.8052 312.4862 14.17039628975507"
      },
      "geometry": {
        "type": "Point",
        "coordinates": [
          133.66027161139198,
          -76.75322050511568
        ]
      }
    },
    {
      "type": "Feature",
      "properties": {
        "norad_id": 30561,
        "name": "FENGYUN 1C DEB",
        "group": "fengyun-1c-debris",
        "lat": 68.77167515015353,
        "lon": -20.89800314458977,
        "alt_km": 804.450980504972,
        "timestamp": "2025-12-26T15:29:39.716632+00:00",
        "meta_object_name": "FENGYUN 1C DEB",
        "meta_object_id": "1999-025ALB",
        "meta_epoch": "2025-12-26T00:09:27.167616",
        "meta_mean_motion": 14.11286866,
        "meta_eccentricity": 0.00607358,
        "meta_inclination": 98.7247,
        "meta_ra_of_asc_node": 1.767,
        "meta_arg_of_pericenter": 76.9186,
        "meta_mean_anomaly": 348.8602,
        "meta_ephemeris_type": 0,
        "meta_classification_type": "U",
        "meta_norad_cat_id": 30561,
        "meta_element_set_no": 999,
        "meta_rev_at_epoch": 97165,
        "meta_bstar": 0.00031469095,
        "meta_mean_motion_dot": 5.36e-06,
        "meta_mean_motion_ddot": 0,
        "tle_line1": "1 30561U 99025ALB 25360.00656444  .00000536  00000+0  31469-3 0  9994",
        "tle_line2": "2 30561  98.7247   1.7670 0060735  76.9186 348.8602 14.11286866971655"
      },
      "geometry": {
        "type": "Point",
        "coordinates": [
          -20.89800314458977,
          68.77167515015353
        ]
      }
    },
    {
      "type": "Feature",
      "properties": {
        "norad_id": 30562,
        "name": "FENGYUN 1C DEB",
        "group": "fengyun-1c-debris",
        "lat": 11.009029105567782,
        "lon": -109.95264965589493,
        "alt_km": 792.1218460204809,
        "timestamp": "2025-12-26T15:29:39.716643+00:00",
        "meta_object_name": "FENGYUN 1C DEB",
        "meta_object_id": "1999-025ALC",
        "meta_epoch": "2025-12-25T17:20:11.726016",
        "meta_mean_motion": 14.23142059,
        "meta_eccentricity": 0.00600345,
        "meta_inclination": 98.7626,
        "meta_ra_of_asc_node": 67.4091,
        "meta_arg_of_pericenter": 227.975,
        "meta_mean_anomaly": 253.9513,
        "meta_ephemeris_type": 0,
        "meta_classification_type": "U",
        "meta_norad_cat_id": 30562,
        "meta_element_set_no": 999,
        "meta_rev_at_epoch": 97184,
        "meta_bstar": 0.0016660527,
        "meta_mean_motion_dot": 3.79e-05,
        "meta_mean_motion_ddot": 0,
        "tle_line1": "1 30562U 99025ALC 25359.72235794  .00003790  00000+0  16661-2 0  9994",
        "tle_line2": "2 30562  98.7626  67.4091 0060034 227.9750 253.9513 14.23142059971846"
      },
      "geometry": {
        "type": "Point",
        "coordinates": [
          -109.95264965589493,
          11.009029105567782
        ]
      }
    },
    {
      "type": "Feature",
      "properties": {
        "norad_id": 30564,
        "name": "FENGYUN 1C DEB",
        "group": "fengyun-1c-debris",
        "lat": -45.04281983023717,
        "lon": 20.956645383389336,
        "alt_km": 964.1516259698346,
        "timestamp": "2025-12-26T15:29:39.716654+00:00",
        "meta_object_name": "FENGYUN 1C DEB",
        "meta_object_id": "1999-025ALE",
        "meta_epoch": "2025-12-24T07:24:54.030816",
        "meta_mean_motion": 14.05780963,
        "meta_eccentricity": 0.02029283,
        "meta_inclination": 98.7959,
        "meta_ra_of_asc_node": 9.7662,
        "meta_arg_of_pericenter": 86.502,
        "meta_mean_anomaly": 291.0084,
        "meta_ephemeris_type": 0,
        "meta_classification_type": "U",
        "meta_norad_cat_id": 30564,
        "meta_element_set_no": 999,
        "meta_rev_at_epoch": 96458,
        "meta_bstar": 0.00059313782,
        "meta_mean_motion_dot": 1.125e-05,
        "meta_mean_motion_ddot": 0,
        "tle_line1": "1 30564U 99025ALE 25358.30895869  .00001125  00000+0  59314-3 0  9997",
        "tle_line2": "2 30564  98.7959   9.7662 0202928  86.5020 291.0084 14.05780963964580"
      },
      "geometry": {
        "type": "Point",
        "coordinates": [
          20.956645383389336,
          -45.04281983023717
        ]
      }
    }
  ]
}